{"type": "FeatureCollection", "features": [ {"type": "Feature", "properties": {"norad_id": 37694, "name": "FENGYUN 1C DEB", "group": "fengyun-1c-debris", "lat": -20.477052609636075, "lon": 69.99663274930502, "alt_km": 811.7171738004636, "timestamp": "2025-12-26T08:37:54.869597+00:00", "meta": {"OBJECT_NAME": "FENGYUN 1C DEB", "OBJECT_ID": "1999-025ELK", "EPOCH": "2025-12-14T10:20:27.757248", "MEAN_MOTION": 14.16668534, "ECCENTRICITY": 0.01472645, "INCLINATION": 98.1988, "RA_OF_ASC_NODE": 55.9107, "ARG_OF_PERICENTER": 88.6122, "MEAN_ANOMALY": 288.1431, "EPHEMERIS_TYPE": 0, "CLASSIFICATION_TYPE": "U", "NORAD_CAT_ID": 37694, "ELEMENT_SET_NO": 999, "REV_AT_EPOCH": 51728, "BSTAR": 0.0018272074, "MEAN_MOTION_DOT": 4.021e-05, "MEAN_MOTION_DDOT": 0}, "tle": {"line1": "1 37694U 99025ELK 25348.43087682  .00004021  00000+0  18272-2 0  9992", "line2": "2 37694  98.1988  55.9107 0147264  88.6122 288.1431 14.16668534517286"}}, "geometry": {"type": "Point", "coordinates": [69.99663274930502, -20.477052609636075]}}, {"type": "Feature", "properties": {"norad_id": 37695, "name": "FENGYUN 1C DEB", "group": "fengyun-1c-debris", "lat": -49.104613858930456, "lon": -147.95806973488666, "alt_km": 681.400389615812, "timestamp": "2025-12-26T08:37:54.869607+00:00", "meta": {"OBJECT_NAME": "FENGYUN 1C DEB", "OBJECT_ID": "1999-025ELL", "EPOCH": "2025-12-15T20:50:38.916672", "MEAN_MOTION": 13.64992638, "ECCENTRICITY": 0.04654766, "INCLINATION": 98.2113, "RA_OF_ASC_NODE": 32.72, "ARG_OF_PERICENTER": 252.5094, "MEAN_ANOMALY": 291.0319, "EPHEMERIS_TYPE": 0, "CLASSIFICATION_TYPE": "U", "NORAD_CAT_ID": 37695, "ELEMENT_SET_NO": 999, "REV_AT_EPOCH": 89294, "BSTAR": 0.00074996206, "MEAN_MOTION_DOT": 1.237e-05, "MEAN_MOTION_DDOT": 0}, "tle": {"line1": "1 37695U 99025ELL 25349.86850598  .00001237  00000+0  74996-3 0  9997", "line2": "2 37695  98.2113  32.7200 0465476 252.5094 291.0319 13.64992638892947"}}, "geometry": {"type": "Point", "coordinates": [-147.95806973488666, -49.104613858930456]}}, {"type": "Feature", "properties": {"norad_id": 37704, "name": "FENGYUN 1C DEB", "group": "fengyun-1c-debris", "lat": 71.30746123904338, "lon": 37.314517526402476, "alt_km": 845.3310681865396, "timestamp": "2025-12-26T08:37:54.869617+00:00", "meta": {"OBJECT_NAME": "FENGYUN 1C DEB", "OBJECT_ID": "1999-025ELV", "EPOCH": "2025-12-10T18:58:47.253216", "MEAN_MOTION": 13.70500661, "ECCENTRICITY": 0.02401356, "INCLINATION": 98.3199, "RA_OF_ASC_NODE": 178.1952, "ARG_OF_PERICENTER": 184.1814, "MEAN_ANOMALY": 190.5574, "EPHEMERIS_TYPE": 0, "CLASSIFICATION_TYPE": "U", "NORAD_CAT_ID": 37704, "ELEMENT_SET_NO": 999, "REV_AT_EPOCH": 62338, "BSTAR": 0.0019314833, "MEAN_MOTION_DOT": 2.062e-05, "MEAN_MOTION_DDOT": 0}, "tle": {"line1": "1 37704U 99025ELV 25344.79082469  .00002062  00000+0  19315-2 0  9999", "line2": "2 37704  98.3199 178.1952 0240135 184.1814 190.5574 13.70500661623389"}}, "geometry": {"type": "Point", "coordinates": [37.314517526402476, 71.30746123904338]}}, {"type": "Feature", "properties": {"norad_id": 37707, "name": "FENGYUN 1C DEB", "group": "fengyun-1c-debris", "lat": 73.1185100144541, "lon": -136.12005003894205, "alt_km": 742.5044143178939, "timestamp": "2025-12-26T08:37:54.869628+00:00", "meta": {"OBJECT_NAME": "FENGYUN 1C DEB", "OBJECT_ID": "1999-025ELY", "EPOCH": "2025-12-17T06:35:19.530240", "MEAN_MOTION": 14.56477467, "ECCENTRICITY": 0.01433735, "INCLINATION": 100.2206, "RA_OF_ASC_NODE": 356.2824, "ARG_OF_PERICENTER": 12.733, "MEAN_ANOMALY": 358.6114, "EPHEMERIS_TYPE": 0, "CLASSIFICATION_TYPE": "U", "NORAD_CAT_ID": 37707, "ELEMENT_SET_NO": 999, "REV_AT_EPOCH": 85632, "BSTAR": 0.00056858098, "MEAN_MOTION_DOT": 2.832e-05, "MEAN_MOTION_DDOT": 0}, "tle": {"line1": "1 37707U 99025ELY 25351.27453160  .00002832  00000+0  56858-3 0  9992", "line2": "2 37707 100.2206 356.2824 0143373  12.7330 358.6114 14.56477467856327"}}, "geometry": {"type": "Point", "coordinates": [-136.12005003894205, 73.1185100144541]}}, {"type": "Feature", "properties": {"norad_id": 37712, "name": "FENGYUN 1C DEB", "group": "fengyun-1c-debris", "lat": 47.77840875435116, "lon": 129.84702204832462, "alt_km": 770.7348516862066, "timestamp": "2025-12-26T08:37:54.869638+00:00", "meta": {"OBJECT_NAME": "FENGYUN 1C DEB", "OBJECT_ID": "1999-025EMD", "EPOCH": "2025-12-21T03:52:22.322208", "MEAN_MOTION": 14.3644777, "ECCENTRICITY": 0.00788764, "INCLINATION": 98.8186, "RA_OF_ASC_NODE": 134.3771, "ARG_OF_PERICENTER": 328.6052, "MEAN_ANOMALY": 212.8774, "EPHEMERIS_TYPE": 0, "CLASSIFICATION_TYPE": "U", "NORAD_CAT_ID": 37712, "ELEMENT_SET_NO": 999, "REV_AT_EPOCH": 64081, "BSTAR": 0.00029257715, "MEAN_MOTION_DOT": 8.41e-06, "MEAN_MOTION_DDOT": 0}, "tle": {"line1": "1 37712U 99025EMD 25355.16136947  .00000841  00000+0  29258-3 0  9993", "line2": "2 37712  98.8186 134.3771 0078876 328.6052 212.8774 14.36447770640813"}}, "geometry": {"type": "Point", "coordinates": [129.84702204832462, 47.77840875435116]}}, {"type": "Feature", "properties": {"norad_id": 37714, "name": "FENGYUN 1C DEB", "group": "fengyun-1c-debris", "lat": 74.91337934072075, "lon": -32.08908372448876, "alt_km": 758.594862330594, "timestamp": "2025-12-26T08:37:54.869648+00:00", "meta": {"OBJECT_NAME": "FENGYUN 1C DEB", "OBJECT_ID": "1999-025EMF", "EPOCH": "2025-12-23T01:21:50.423040", "MEAN_MOTION": 14.32327633, "ECCENTRICITY": 0.00473504, "INCLINATION": 98.8929, "RA_OF_ASC_NODE": 109.0175, "ARG_OF_PERICENTER": 53.8704, "MEAN_ANOMALY": 306.6848, "EPHEMERIS_TYPE": 0, "CLASSIFICATION_TYPE": "U", "NORAD_CAT_ID": 37714, "ELEMENT_SET_NO": 999, "REV_AT_EPOCH": 57657, "BSTAR": 0.0019523665, "MEAN_MOTION_DOT": 5.296e-05, "MEAN_MOTION_DDOT": 0}, "tle": {"line1": "1 37714U 99025EMF 25357.05683360  .00005296  00000+0  19524-2 0  9994", "line2": "2 37714  98.8929 109.0175 0047350  53.8704 306.6848 14.32327633576577"}}, "geometry": {"type": "Point", "coordinates": [-32.08908372448876, 74.91337934072075]}}, {"type": "Feature", "properties": {"norad_id": 37715, "name": "FENGYUN 1C DEB", "group": "fengyun-1c-debris", "lat": -76.18750995650245, "lon": 147.84027754389183, "alt_km": 1000.192828760255, "timestamp": "2025-12-26T08:37:54.869658+00:00", "meta": {"OBJECT_NAME": "FENGYUN 1C DEB", "OBJECT_ID": "1999-025EMG", "EPOCH": "2025-12-25T21:37:21.158112", "MEAN_MOTION": 13.95432374, "ECCENTRICITY": 0.0114565, "INCLINATION": 98.9558, "RA_OF_ASC_NODE": 7.2911, "ARG_OF_PERICENTER": 76.1693, "MEAN_ANOMALY": 40.1928, "EPHEMERIS_TYPE": 0, "CLASSIFICATION_TYPE": "U", "NORAD_CAT_ID": 37715, "ELEMENT_SET_NO": 999, "REV_AT_EPOCH": 57987, "BSTAR": 0.00064796, "MEAN_MOTION_DOT": 8.86e-06, "MEAN_MOTION_DDOT": 0}, "tle": {"line1": "1 37715U 99025EMG 25359.90093933  .00000886  00000+0  64796-3 0  9994", "line2": "2 37715  98.9558   7.2911 0114565  76.1693  40.1928 13.95432374579874"}}, "geometry": {"type": "Point", "coordinates": [147.84027754389183, -76.18750995650245]}}, {"type": "Feature", "properties": {"norad_id": 37717, "name": "FENGYUN 1C DEB", "group": "fengyun-1c-debris", "lat": 57.38861392861531, "lon": 151.51765654794374, "alt_km": 559.1424673149322, "timestamp": "2025-12-26T08:37:54.869669+00:00", "meta": {"OBJECT_NAME": "FENGYUN 1C DEB", "OBJECT_ID": "1999-025EMJ", "EPOCH": "2025-12-15T15:45:42.031008", "MEAN_MOTION": 14.94137729, "ECCENTRICITY": 0.0058722, "INCLINATION": 98.7255, "RA_OF_ASC_NODE": 305.7435, "ARG_OF_PERICENTER": 93.683, "MEAN_ANOMALY": 83.3944, "EPHEMERIS_TYPE": 0, "CLASSIFICATION_TYPE": "U", "NORAD_CAT_ID": 37717, "ELEMENT_SET_NO": 999, "REV_AT_EPOCH": 89441, "BSTAR": 0.0018768118, "MEAN_MOTION_DOT": 0.00020752, "MEAN_MOTION_DDOT": 0}, "tle": {"line1": "1 37717U 99025EMJ 25349.65673647  .00020752  00000+0  18768-2 0  9994", "line2": "2 37717  98.7255 305.7435 0058722  93.6830  83.3944 14.94137729894417"}}, "geometry": {"type": "Point", "coordinates": [151.51765654794374, 57.38861392861531]}}, {"type": "Feature", "properties": {"norad_id": 37719, "name": "FENGYUN 1C DEB", "group": "fengyun-1c-debris", "lat": 47.4021105098237, "lon": 17.73988665398555, "alt_km": 731.7364942155837, "timestamp": "2025-12-26T08:37:54.869679+00:00", "meta": {"OBJECT_NAME": "FENGYUN 1C DEB", "OBJECT_ID": "1999-025EML", "EPOCH": "2025-12-21T08:06:10.221120", "MEAN_MOTION": 14.56171039, "ECCENTRICITY": 0.00438458, "INCLINATION": 99.5008, "RA_OF_ASC_NODE": 22.5212, "ARG_OF_PERICENTER": 233.5664, "MEAN_ANOMALY": 142.7059, "EPHEMERIS_TYPE": 0, "CLASSIFICATION_TYPE": "U", "NORAD_CAT_ID": 37719, "ELEMENT_SET_NO": 999, "REV_AT_EPOCH": 364, "BSTAR": 0.0012070078, "MEAN_MOTION_DOT": 5.344e-05, "MEAN_MOTION_DDOT": 0}, "tle": {"line1": "1 37719U 99025EML 25355.33761830  .00005344  00000+0  12070-2 0  9990", "line2": "2 37719  99.5008  22.5212 0043845 233.5664 142.7059 14.56171039  3645"}}, "geometry": {"type": "Point", "coordinates": [17.73988665398555, 47.4021105098237]}}, {"type": "Feature", "properties": {"norad_id": 37902, "name": "FENGYUN 1C DEB", "group": "fengyun-1c-debris", "lat": -63.011083695548834, "lon": -123.5874737316115, "alt_km": 847.7976791116434, "timestamp": "2025-12-26T08:37:54.869689+00:00", "meta": {"OBJECT_NAME": "FENGYUN 1C DEB", "OBJECT_ID": "1999-025ENB", "EPOCH": "2025-12-07T14:03:14.833440", "MEAN_MOTION": 13.52640367, "ECCENTRICITY": 0.03237878, "INCLINATION": 98.6837, "RA_OF_ASC_NODE": 202.4677, "ARG_OF_PERICENTER": 320.2654, "MEAN_ANOMALY": 37.5166, "EPHEMERIS_TYPE": 0, "CLASSIFICATION_TYPE": "U", "NORAD_CAT_ID": 37902, "ELEMENT_SET_NO": 999, "REV_AT_EPOCH": 62907, "BSTAR": 0.003775391, "MEAN_MOTION_DOT": 3.447e-05, "MEAN_MOTION_DDOT": 0}, "tle": {"line1": "1 37902U 99025ENB 25341.58558835  .00003447  00000+0  37754-2 0  9993", "line2": "2 37902  98.6837 202.4677 0323787 320.2654  37.5166 13.52640367629073"}}, "geometry": {"type": "Point", "coordinates": [-123.5874737316115, -63.011083695548834]}}]}